[{"OBJECT_NAME":"IRIDIUM 167","OBJECT_ID":"2019-002K","EPOCH":"2026-03-09T22:39:34.779456","MEAN_MOTION":14.34218835,"ECCENTRICITY":0.00018219,"INCLINATION":86.3972,"RA_OF_ASC_NODE":35.0554,"ARG_OF_PERICENTER":93.0141,"MEAN_ANOMALY":267.1263,"EPHEMERIS_TYPE":0,"CLASSIFICATION_TYPE":"U","NORAD_CAT_ID":43931,"ELEMENT_SET_NO":999,"REV_AT_EPOCH":37473,"BSTAR":-8.039993e-6,"MEAN_MOTION_DOT":-3.0e-8,"MEAN_MOTION_DDOT":0},{"OBJECT_NAME":"SL-8 R\/B","OBJECT_ID":"1994-083B","EPOCH":"2026-03-09T20:57:01.039680","MEAN_MOTION":14.34423441,"ECCENTRICITY":0.00050759,"INCLINATION":74.0308,"RA_OF_ASC_NODE":226.4362,"ARG_OF_PERICENTER":13.4144,"MEAN_ANOMALY":102.3454,"EPHEMERIS_TYPE":0,"CLASSIFICATION_TYPE":"U","NORAD_CAT_ID":23432,"ELEMENT_SET_NO":999,"REV_AT_EPOCH":63291,"BSTAR":9.6979735e-5,"MEAN_MOTION_DOT":2.47e-6,"MEAN_MOTION_DDOT":0}]
